QZS-1R                  
1 49336U 21096A   23330.67688414 -.00000259  00000+0  00000+0 0  9993
2 49336  35.5290  93.6402 0751393 270.7668  79.4000  1.00264013  7643
